$$SOE
2460154.500000000, A.D. 2023-Jul-29 00:00:00.0000, 3.235070982150128E+09, 5.373826973772374E+09, -1.738047062255650E+08,
2460161.500000000, A.D. 2023-Aug-05 00:00:00.0000, 3.232672247171629E+09, 5.375305778428635E+09, -1.737683954090872E+08,
2460168.500000000, A.D. 2023-Aug-12 00:00:00.0000, 3.230272789624262E+09, 5.376783497585266E+09, -1.737320479359860E+08,
2460175.500000000, A.D. 2023-Aug-19 00:00:00.0000, 3.227872607993469E+09, 5.378260128511013E+09, -1.736956636943474E+08,
2460182.500000000, A.D. 2023-Aug-26 00:00:00.0000, 3.225471701070377E+09, 5.379735668076217E+09, -1.736592425963790E+08,
2460189.500000000, A.D. 2023-Sep-02 00:00:00.0000, 3.223070067929550E+09, 5.381210112771491E+09, -1.736227845769989E+08,
2460196.500000000, A.D. 2023-Sep-09 00:00:00.0000, 3.220667707920353E+09, 5.382683458613868E+09, -1.735862896037679E+08,
2460203.500000000, A.D. 2023-Sep-16 00:00:00.0000, 3.218264620840383E+09, 5.384155700882420E+09, -1.735497577183304E+08,
2460210.500000000, A.D. 2023-Sep-23 00:00:00.0000, 3.215860807707341E+09, 5.385626833970110E+09, -1.735131891240251E+08,
2460217.500000000, A.D. 2023-Sep-30 00:00:00.0000, 3.213456271789820E+09, 5.387096852542605E+09, -1.734765841911275E+08,
2460224.500000000, A.D. 2023-Oct-07 00:00:00.0000, 3.211051017543229E+09, 5.388565753461247E+09, -1.734399432080662E+08,
2460231.500000000, A.D. 2023-Oct-14 00:00:00.0000, 3.208645048490782E+09, 5.390033535156973E+09, -1.734032662445731E+08,
2460238.500000000, A.D. 2023-Oct-21 00:00:00.0000, 3.206238367278139E+09, 5.391500196057946E+09, -1.733665532917612E+08,
2460245.500000000, A.D. 2023-Oct-28 00:00:00.0000, 3.203830976477349E+09, 5.392965734330982E+09, -1.733298043635266E+08,
2460252.500000000, A.D. 2023-Nov-04 00:00:00.0000, 3.201422878890060E+09, 5.394430148166420E+09, -1.732930195073447E+08,
2460259.500000000, A.D. 2023-Nov-11 00:00:00.0000, 3.199014077527569E+09, 5.395893436006514E+09, -1.732561987894876E+08,
2460266.500000000, A.D. 2023-Nov-18 00:00:00.0000, 3.196604575487196E+09, 5.397355596653082E+09, -1.732193422798173E+08,
2460273.500000000, A.D. 2023-Nov-25 00:00:00.0000, 3.194194375797829E+09, 5.398816629276951E+09, -1.731824500407534E+08,
2460280.500000000, A.D. 2023-Dec-02 00:00:00.0000, 3.191783481262804E+09, 5.400276533317992E+09, -1.731455221237390E+08,
2460287.500000000, A.D. 2023-Dec-09 00:00:00.0000, 3.189371894377962E+09, 5.401735308216860E+09, -1.731085585850468E+08,
2460294.500000000, A.D. 2023-Dec-16 00:00:00.0000, 3.186959617612422E+09, 5.403192952990979E+09, -1.730715595462360E+08,
2460301.500000000, A.D. 2023-Dec-23 00:00:00.0000, 3.184546654400528E+09, 5.404649466342241E+09, -1.730345252750757E+08,
2460308.500000000, A.D. 2023-Dec-30 00:00:00.0000, 3.182133009504735E+09, 5.406104848345646E+09, -1.729974560783927E+08,
2460315.500000000, A.D. 2024-Jan-06 00:00:00.0000, 3.179718686977000E+09, 5.407559101358191E+09, -1.729603520373337E+08,
2460322.500000000, A.D. 2024-Jan-13 00:00:00.0000, 3.177303688891425E+09, 5.409012228341091E+09, -1.729232130239758E+08,
2460329.500000000, A.D. 2024-Jan-20 00:00:00.0000, 3.174888016071682E+09, 5.410464231679915E+09, -1.728860388596621E+08,
2460336.500000000, A.D. 2024-Jan-27 00:00:00.0000, 3.172471668784512E+09, 5.411915113154831E+09, -1.728488293759449E+08,
2460343.500000000, A.D. 2024-Feb-03 00:00:00.0000, 3.170054646970912E+09, 5.413364874112354E+09, -1.728115844165957E+08,
2460350.500000000, A.D. 2024-Feb-10 00:00:00.0000, 3.167636950292375E+09, 5.414813515547450E+09, -1.727743038301291E+08,
2460357.500000000, A.D. 2024-Feb-17 00:00:00.0000, 3.165218578130883E+09, 5.416261038103979E+09, -1.727369874650979E+08,
2460364.500000000, A.D. 2024-Feb-24 00:00:00.0000, 3.162799529578589E+09, 5.417707442008183E+09, -1.726996351703770E+08,
2460371.500000000, A.D. 2024-Mar-02 00:00:00.0000, 3.160379803446544E+09, 5.419152726902792E+09, -1.726622468059151E+08,
2460378.500000000, A.D. 2024-Mar-09 00:00:00.0000, 3.157959398431255E+09, 5.420596891518810E+09, -1.726248222818818E+08,
2460385.500000000, A.D. 2024-Mar-16 00:00:00.0000, 3.155538313834426E+09, 5.422039933382305E+09, -1.725873616464212E+08,
2460392.500000000, A.D. 2024-Mar-23 00:00:00.0000, 3.153116550732233E+09, 5.423481849665206E+09, -1.725498651218979E+08,
2460399.500000000, A.D. 2024-Mar-30 00:00:00.0000, 3.150694111353058E+09, 5.424922639153355E+09, -1.725123328862977E+08,
2460406.500000000, A.D. 2024-Apr-06 00:00:00.0000, 3.148270996919682E+09, 5.426362301964148E+09, -1.724747648984621E+08,
2460413.500000000, A.D. 2024-Apr-13 00:00:00.0000, 3.145847207507053E+09, 5.427800837850256E+09, -1.724371610245478E+08,
2460420.500000000, A.D. 2024-Apr-20 00:00:00.0000, 3.143422742963531E+09, 5.429238245766012E+09, -1.723995211595905E+08,
2460427.500000000, A.D. 2024-Apr-27 00:00:00.0000, 3.140997603378535E+09, 5.430674524135138E+09, -1.723618452508898E+08,
2460434.500000000, A.D. 2024-May-04 00:00:00.0000, 3.138571789184542E+09, 5.432109671116482E+09, -1.723241332886958E+08,
2460441.500000000, A.D. 2024-May-11 00:00:00.0000, 3.136145301131772E+09, 5.433543684766153E+09, -1.722863852942684E+08,
2460448.500000000, A.D. 2024-May-18 00:00:00.0000, 3.133718140217546E+09, 5.434976563117943E+09, -1.722486013109310E+08,
2460455.500000000, A.D. 2024-May-25 00:00:00.0000, 3.131290307595020E+09, 5.436408304175224E+09, -1.722107814007835E+08,
2460462.500000000, A.D. 2024-Jun-01 00:00:00.0000, 3.128861804521172E+09, 5.437838905757245E+09, -1.721729256570437E+08,
2460469.500000000, A.D. 2024-Jun-08 00:00:00.0000, 3.126432632590368E+09, 5.439268365177144E+09, -1.721350342562406E+08,
2460476.500000000, A.D. 2024-Jun-15 00:00:00.0000, 3.124002794653062E+09, 5.440696679297078E+09, -1.720971075420930E+08,
2460483.500000000, A.D. 2024-Jun-22 00:00:00.0000, 3.121572295414385E+09, 5.442123846135826E+09, -1.720591459525781E+08,
2460490.500000000, A.D. 2024-Jun-29 00:00:00.0000, 3.119141139591002E+09, 5.443549866208261E+09, -1.720211497441072E+08,
2460497.500000000, A.D. 2024-Jul-06 00:00:00.0000, 3.116709330271261E+09, 5.444974741125711E+09, -1.719831189571710E+08,
2460504.500000000, A.D. 2024-Jul-13 00:00:00.0000, 3.114276869427840E+09, 5.446398472281436E+09, -1.719450535712652E+08,
2460511.500000000, A.D. 2024-Jul-20 00:00:00.0000, 3.111843758597284E+09, 5.447821060769916E+09, -1.719069535730240E+08,
2460518.500000000, A.D. 2024-Jul-27 00:00:00.0000, 3.109409999070413E+09, 5.449242507580580E+09, -1.718688189557755E+08,
2460525.500000000, A.D. 2024-Aug-03 00:00:00.0000, 3.106975591866528E+09, 5.450662813691100E+09, -1.718306497062745E+08,
2460532.500000000, A.D. 2024-Aug-10 00:00:00.0000, 3.104540537657210E+09, 5.452081980055992E+09, -1.717924457943146E+08,
2460539.500000000, A.D. 2024-Aug-17 00:00:00.0000, 3.102104836687023E+09, 5.453500007512544E+09, -1.717542071679912E+08,
2460546.500000000, A.D. 2024-Aug-24 00:00:00.0000, 3.099668488718963E+09, 5.454916896582146E+09, -1.717159337592070E+08,
2460553.500000000, A.D. 2024-Aug-31 00:00:00.0000, 3.097231493120278E+09, 5.456332647105981E+09, -1.716776255153317E+08,
2460560.500000000, A.D. 2024-Sep-07 00:00:00.0000, 3.094793849454156E+09, 5.457747257841700E+09, -1.716392824804482E+08,
2460567.500000000, A.D. 2024-Sep-14 00:00:00.0000, 3.092355558662515E+09, 5.459160727017353E+09, -1.716009048528864E+08,
2460574.500000000, A.D. 2024-Sep-21 00:00:00.0000, 3.089916622811092E+09, 5.460573054255332E+09, -1.715624927994480E+08,
2460581.500000000, A.D. 2024-Sep-28 00:00:00.0000, 3.087477042909306E+09, 5.461984240638862E+09, -1.715240462455566E+08,
2460588.500000000, A.D. 2024-Oct-05 00:00:00.0000, 3.085036818474621E+09, 5.463394286922889E+09, -1.714855649779437E+08,
2460595.500000000, A.D. 2024-Oct-12 00:00:00.0000, 3.082595948480772E+09, 5.464803192869525E+09, -1.714470487833285E+08,
2460602.500000000, A.D. 2024-Oct-19 00:00:00.0000, 3.080154431938935E+09, 5.466210957437441E+09, -1.714084974846981E+08,
2460609.500000000, A.D. 2024-Oct-26 00:00:00.0000, 3.077712268079508E+09, 5.467617579023973E+09, -1.713699109377232E+08,
2460616.500000000, A.D. 2024-Nov-02 00:00:00.0000, 3.075269456391938E+09, 5.469023055611797E+09, -1.713312890230212E+08,
2460623.500000000, A.D. 2024-Nov-09 00:00:00.0000, 3.072825996619309E+09, 5.470427384841145E+09, -1.712926316414287E+08,
2460630.500000000, A.D. 2024-Nov-16 00:00:00.0000, 3.070381888733791E+09, 5.471830564008146E+09, -1.712539387145646E+08,
2460637.500000000, A.D. 2024-Nov-23 00:00:00.0000, 3.067937132939968E+09, 5.473232589939651E+09, -1.712152101990209E+08,
2460644.500000000, A.D. 2024-Nov-30 00:00:00.0000, 3.065491729914544E+09, 5.474633458702156E+09, -1.711764461366735E+08,
2460651.500000000, A.D. 2024-Dec-07 00:00:00.0000, 3.063045681701917E+09, 5.476033165565669E+09, -1.711376467451267E+08,
2460658.500000000, A.D. 2024-Dec-14 00:00:00.0000, 3.060598992577118E+09, 5.477431706446697E+09, -1.710988123849666E+08,
2460665.500000000, A.D. 2024-Dec-21 00:00:00.0000, 3.058151667557623E+09, 5.478829079589666E+09, -1.710599432924213E+08,
2460672.500000000, A.D. 2024-Dec-28 00:00:00.0000, 3.055703710536545E+09, 5.480225284519582E+09, -1.710210395006542E+08,
2460679.500000000, A.D. 2025-Jan-04 00:00:00.0000, 3.053255124634520E+09, 5.481620320642146E+09, -1.709821009935386E+08,
2460686.500000000, A.D. 2025-Jan-11 00:00:00.0000, 3.050805912949091E+09, 5.483014187151233E+09, -1.709431277889745E+08,
2460693.500000000, A.D. 2025-Jan-18 00:00:00.0000, 3.048356078784799E+09, 5.484406883324923E+09, -1.709041199424849E+08,
2460700.500000000, A.D. 2025-Jan-25 00:00:00.0000, 3.045905625607570E+09, 5.485798408735570E+09, -1.708650775319362E+08,
2460707.500000000, A.D. 2025-Feb-01 00:00:00.0000, 3.043454556913079E+09, 5.487188763343812E+09, -1.708260006429758E+08,
2460714.500000000, A.D. 2025-Feb-08 00:00:00.0000, 3.041002876067569E+09, 5.488577947496112E+09, -1.707868893586841E+08,
2460721.500000000, A.D. 2025-Feb-15 00:00:00.0000, 3.038550586150058E+09, 5.489965961805882E+09, -1.707477437575042E+08,
$$EOE